[
    {
        "Altitude(m)": 702684.2619919031,
        "Argument of Periapsis(deg)": 0.0,
        "Eccentricity": 0.0,
        "Inclination(deg)": 45.0,
        "Latitude(deg)": 11.4989149400366,
        "Longitude(deg)": -81.64316668907985,
        "Mean Anomaly(deg)": -196.36359999999996,
        "RAAN(deg)": 210.0,
        "Satellite Name": "Constellation 1 934",
        "Satellite Number": 934,
        "Semi-Major Axis(m)": 7083131.272910544,
        "Time(s)": 0
    },
    {
        "Altitude(m)": 702684.415445867,
        "Argument of Periapsis(deg)": 5.994800624540561e-05,
        "Eccentricity": 0.0,
        "Inclination(deg)": 45.0,
        "Latitude(deg)": 11.456592942470879,
        "Longitude(deg)": -81.60264915590804,
        "Mean Anomaly(deg)": -196.3028988597501,
        "RAAN(deg)": 209.99994341083445,
        "Satellite Name": "Constellation 1 934",
        "Satellite Number": 934,
        "Semi-Major Axis(m)": 7083131.272910544,
        "Time(s)": 1
    },
    {
        "Altitude(m)": 702684.5879772301,
        "Argument of Periapsis(deg)": 0.00011989601249081122,
        "Eccentricity": 0.0,
        "Inclination(deg)": 45.0,
        "Latitude(deg)": 11.414264054953833,
        "Longitude(deg)": -81.56214492822694,
        "Mean Anomaly(deg)": -196.2421977195002,
        "RAAN(deg)": 209.99988682166887,
        "Satellite Name": "Constellation 1 934",
        "Satellite Number": 934,
        "Semi-Major Axis(m)": 7083131.272910544,
        "Time(s)": 2
    },
    {
        "Altitude(m)": 702684.7796034802,
        "Argument of Periapsis(deg)": 0.00017984401873621686,
        "Eccentricity": 0.0,
        "Inclination(deg)": 45.0,
        "Latitude(deg)": 11.371928305808582,
        "Longitude(deg)": -81.52165395398845,
        "Mean Anomaly(deg)": -196.18149657925028,
        "RAAN(deg)": 209.9998302325033,
        "Satellite Name": "Constellation 1 934",
        "Satellite Number": 934,
        "Semi-Major Axis(m)": 7083131.272910544,
        "Time(s)": 3
    },
    {
        "Altitude(m)": 702684.9903420378,
        "Argument of Periapsis(deg)": 0.00023979202498162244,
        "Eccentricity": 0.0,
        "Inclination(deg)": 45.0,
        "Latitude(deg)": 11.329585723332588,
        "Longitude(deg)": -81.48117618117064,
        "Mean Anomaly(deg)": -196.1207954390004,
        "RAAN(deg)": 209.99977364333773,
        "Satellite Name": "Constellation 1 934",
        "Satellite Number": 934,
        "Semi-Major Axis(m)": 7083131.272910544,
        "Time(s)": 4
    },
    {
        "Altitude(m)": 702685.2202102332,
        "Argument of Periapsis(deg)": 0.00029974003122702807,
        "Eccentricity": 0.0,
        "Inclination(deg)": 45.0,
        "Latitude(deg)": 11.287236335797902,
        "Longitude(deg)": -81.44071155777773,
        "Mean Anomaly(deg)": -196.06009429875056,
        "RAAN(deg)": 209.99971705417215,
        "Satellite Name": "Constellation 1 934",
        "Satellite Number": 934,
        "Semi-Major Axis(m)": 7083131.272910544,
        "Time(s)": 5
    },
    {
        "Altitude(m)": 702685.4692253305,
        "Argument of Periapsis(deg)": 0.00035968803747243373,
        "Eccentricity": 0.0,
        "Inclination(deg)": 45.0,
        "Latitude(deg)": 11.24488017145094,
        "Longitude(deg)": -81.4002600318396,
        "Mean Anomaly(deg)": -195.99939315850057,
        "RAAN(deg)": 209.9996604650066,
        "Satellite Name": "Constellation 1 934",
        "Satellite Number": 934,
        "Semi-Major Axis(m)": 7083131.272910544,
        "Time(s)": 6
    },
    {
        "Altitude(m)": 702685.7374044933,
        "Argument of Periapsis(deg)": 0.00041963604371783933,
        "Eccentricity": 0.0,
        "Inclination(deg)": 45.0,
        "Latitude(deg)": 11.202517258513,
        "Longitude(deg)": -81.35982171950931,
        "Mean Anomaly(deg)": -195.93869201825072,
        "RAAN(deg)": 209.99960387584102,
        "Satellite Name": "Constellation 1 934",
        "Satellite Number": 934,
        "Semi-Major Axis(m)": 7083131.272910544,
        "Time(s)": 7
    },
    {
        "Altitude(m)": 702686.0247648215,
        "Argument of Periapsis(deg)": 0.0004795840499632449,
        "Eccentricity": 0.0,
        "Inclination(deg)": 45.0,
        "Latitude(deg)": 11.160147625179984,
        "Longitude(deg)": -81.31939623267459,
        "Mean Anomaly(deg)": -195.87799087800076,
        "RAAN(deg)": 209.99954728667547,
        "Satellite Name": "Constellation 1 934",
        "Satellite Number": 934,
        "Semi-Major Axis(m)": 7083131.272910544,
        "Time(s)": 8
    },
    {
        "Altitude(m)": 702686.3313233216,
        "Argument of Periapsis(deg)": 0.0005395320562086505,
        "Eccentricity": 0.0,
        "Inclination(deg)": 45.0,
        "Latitude(deg)": 11.117771299622827,
        "Longitude(deg)": -81.27898368754,
        "Mean Anomaly(deg)": -195.81728973775088,
        "RAAN(deg)": 209.9994906975099,
        "Satellite Name": "Constellation 1 934",
        "Satellite Number": 934,
        "Semi-Major Axis(m)": 7083131.272910544,
        "Time(s)": 9
    },
    {
        "Altitude(m)": 702686.6570969222,
        "Argument of Periapsis(deg)": 0.0005994800624540561,
        "Eccentricity": 0.0,
        "Inclination(deg)": 45.0,
        "Latitude(deg)": 11.075388309987312,
        "Longitude(deg)": -81.23858403223872,
        "Mean Anomaly(deg)": -195.756588597501,
        "RAAN(deg)": 209.99943410834433,
        "Satellite Name": "Constellation 1 934",
        "Satellite Number": 934,
        "Semi-Major Axis(m)": 7083131.272910544,
        "Time(s)": 10
    },
    {
        "Altitude(m)": 702687.002102467,
        "Argument of Periapsis(deg)": 0.0006594280686994618,
        "Eccentricity": 0.0,
        "Inclination(deg)": 45.0,
        "Latitude(deg)": 11.032998684394231,
        "Longitude(deg)": -81.19819721492937,
        "Mean Anomaly(deg)": -195.69588745725108,
        "RAAN(deg)": 209.99937751917878,
        "Satellite Name": "Constellation 1 934",
        "Satellite Number": 934,
        "Semi-Major Axis(m)": 7083131.272910544,
        "Time(s)": 11
    },
    {
        "Altitude(m)": 702687.3663567316,
        "Argument of Periapsis(deg)": 0.0007193760749448675,
        "Eccentricity": 0.0,
        "Inclination(deg)": 45.0,
        "Latitude(deg)": 10.990602450939779,
        "Longitude(deg)": -81.15782318379637,
        "Mean Anomaly(deg)": -195.63518631700117,
        "RAAN(deg)": 209.99932093001317,
        "Satellite Name": "Constellation 1 934",
        "Satellite Number": 934,
        "Semi-Major Axis(m)": 7083131.272910544,
        "Time(s)": 12
    },
    {
        "Altitude(m)": 702687.7498763914,
        "Argument of Periapsis(deg)": 0.000779324081190273,
        "Eccentricity": 0.0,
        "Inclination(deg)": 45.0,
        "Latitude(deg)": 10.948199637695252,
        "Longitude(deg)": -81.11746188704939,
        "Mean Anomaly(deg)": -195.57448517675132,
        "RAAN(deg)": 209.99926434084762,
        "Satellite Name": "Constellation 1 934",
        "Satellite Number": 934,
        "Semi-Major Axis(m)": 7083131.272910544,
        "Time(s)": 13
    },
    {
        "Altitude(m)": 702688.1526780505,
        "Argument of Periapsis(deg)": 0.0008392720874356787,
        "Eccentricity": 0.0,
        "Inclination(deg)": 45.0,
        "Latitude(deg)": 10.905790272707446,
        "Longitude(deg)": -81.07711327292363,
        "Mean Anomaly(deg)": -195.5137840365014,
        "RAAN(deg)": 209.99920775168206,
        "Satellite Name": "Constellation 1 934",
        "Satellite Number": 934,
        "Semi-Major Axis(m)": 7083131.272910544,
        "Time(s)": 14
    },
    {
        "Altitude(m)": 702688.5747782321,
        "Argument of Periapsis(deg)": 0.0008992200936810842,
        "Eccentricity": 0.0,
        "Inclination(deg)": 45.0,
        "Latitude(deg)": 10.863374383998575,
        "Longitude(deg)": -81.03677745777648,
        "Mean Anomaly(deg)": -195.45308289625154,
        "RAAN(deg)": 209.99915116251648,
        "Satellite Name": "Constellation 1 934",
        "Satellite Number": 934,
        "Semi-Major Axis(m)": 7083131.272910544,
        "Time(s)": 15
    },
    {
        "Altitude(m)": 702689.016193366,
        "Argument of Periapsis(deg)": 0.0009591680999264898,
        "Eccentricity": 0.0,
        "Inclination(deg)": 45.0,
        "Latitude(deg)": 10.820951999566468,
        "Longitude(deg)": -80.99645405369961,
        "Mean Anomaly(deg)": -195.39238175600156,
        "RAAN(deg)": 209.99909457335093,
        "Satellite Name": "Constellation 1 934",
        "Satellite Number": 934,
        "Semi-Major Axis(m)": 7083131.272910544,
        "Time(s)": 16
    },
    {
        "Altitude(m)": 702689.476939814,
        "Argument of Periapsis(deg)": 0.0010191161061718953,
        "Eccentricity": 0.0,
        "Inclination(deg)": 45.0,
        "Latitude(deg)": 10.778523147384691,
        "Longitude(deg)": -80.95614317710087,
        "Mean Anomaly(deg)": -195.33168061575176,
        "RAAN(deg)": 209.99903798418535,
        "Satellite Name": "Constellation 1 934",
        "Satellite Number": 934,
        "Semi-Major Axis(m)": 7083131.272910544,
        "Time(s)": 17
    },
    {
        "Altitude(m)": 702689.9570338478,
        "Argument of Periapsis(deg)": 0.001079064112417301,
        "Eccentricity": 0.0,
        "Inclination(deg)": 45.0,
        "Latitude(deg)": 10.736087855402507,
        "Longitude(deg)": -80.91584477631615,
        "Mean Anomaly(deg)": -195.27097947550178,
        "RAAN(deg)": 209.99898139501977,
        "Satellite Name": "Constellation 1 934",
        "Satellite Number": 934,
        "Semi-Major Axis(m)": 7083131.272910544,
        "Time(s)": 18
    }
]